start=new Date('2022-02-01T00:00:00.000Z').valueOf();
sats=[{"OBJECT_TYPE":"PAYLOAD","COUNTRY_CODE":"US","CENTER_NAME":"EARTH","OBJECT_NAME":"STARLINK-2536","NORAD_CAT_ID":"48310","MEAN_MOTION":"15.06405370","ECCENTRICITY":"0.00016980","EPOCH":"2022-01-31T20:17:42.461376","MEAN_ELEMENT_THEORY":"SGP4","INCLINATION":"53.0566","MEAN_MOTION_DOT":"0.00003171","ELEMENT_SET_NO":"999","CLASSIFICATION_TYPE":"U","FILE":"3288814","MEAN_ANOMALY":"289.1851","SITE":"AFETR","TLE_LINE2":"2 48310  53.0566 335.6940 0001698  70.9322 289.1851 15.06405370 42416","REF_FRAME":"TEME","ARG_OF_PERICENTER":"70.9322","OBJECT_ID":"2021-036AL","BSTAR":"0.00023166000000","APOAPSIS":"548.373","SEMIMAJOR_AXIS":"6925.332","LAUNCH_DATE":"2021-04-29","PERIAPSIS":"546.021","EPHEMERIS_TYPE":"0","TLE_LINE1":"1 48310U 21036AL  22031.84563034  .00003171  00000-0  23166-3 0  9992","REV_AT_EPOCH":"4241","TIME_SYSTEM":"UTC","PERIOD":"95.592","GP_ID":"195052983","DECAY_DATE":null,"RCS_SIZE":"LARGE","RA_OF_ASC_NODE":"335.6940","MEAN_MOTION_DDOT":"0.0000000000000"},{"INCLINATION":"53.0545","MEAN_ELEMENT_THEORY":"SGP4","EPOCH":"2022-01-31T18:36:52.335072","MEAN_MOTION_DOT":"0.00001498","MEAN_MOTION":"15.06403162","ECCENTRICITY":"0.00015360","OBJECT_NAME":"STARLINK-2534","CENTER_NAME":"EARTH","NORAD_CAT_ID":"48311","COUNTRY_CODE":"US","OBJECT_TYPE":"PAYLOAD","OBJECT_ID":"2021-036AM","ARG_OF_PERICENTER":"72.4093","TLE_LINE2":"2 48311  53.0545 336.0277 0001536  72.4093 287.7063 15.06403162 42400","SITE":"AFETR","REF_FRAME":"TEME","MEAN_ANOMALY":"287.7063","ELEMENT_SET_NO":"999","FILE":"3288814","CLASSIFICATION_TYPE":"U","TLE_LINE1":"1 48311U 21036AM  22031.77560573  .00001498  00000-0  11942-3 0  9999","EPHEMERIS_TYPE":"0","REV_AT_EPOCH":"4240","LAUNCH_DATE":"2021-04-29","PERIAPSIS":"546.140","SEMIMAJOR_AXIS":"6925.339","BSTAR":"0.00011942000000","APOAPSIS":"548.268","RA_OF_ASC_NODE":"336.0277","MEAN_MOTION_DDOT":"0.0000000000000","RCS_SIZE":"LARGE","DECAY_DATE":null,"GP_ID":"195054234","PERIOD":"95.592","TIME_SYSTEM":"UTC"},{"REF_FRAME":"TEME","TLE_LINE2":"2 48312  53.0553 335.7393 0001913  54.6100 305.5067 15.06387211 42415","SITE":"AFETR","OBJECT_ID":"2021-036AN","ARG_OF_PERICENTER":"54.6100","FILE":"3288814","CLASSIFICATION_TYPE":"U","ELEMENT_SET_NO":"999","MEAN_ANOMALY":"305.5067","ECCENTRICITY":"0.00019130","MEAN_MOTION":"15.06387211","MEAN_MOTION_DOT":"0.00001010","MEAN_ELEMENT_THEORY":"SGP4","INCLINATION":"53.0553","EPOCH":"2022-01-31T20:07:08.570496","COUNTRY_CODE":"US","OBJECT_TYPE":"PAYLOAD","NORAD_CAT_ID":"48312","OBJECT_NAME":"STARLINK-2061","CENTER_NAME":"EARTH","RCS_SIZE":"LARGE","MEAN_MOTION_DDOT":"0.0000000000000","RA_OF_ASC_NODE":"335.7393","PERIOD":"95.593","TIME_SYSTEM":"UTC","GP_ID":"195054482","DECAY_DATE":null,"PERIAPSIS":"545.928","LAUNCH_DATE":"2021-04-29","REV_AT_EPOCH":"4241","TLE_LINE1":"1 48312U 21036AN  22031.83829364  .00001010  00000-0  86713-4 0  9992","EPHEMERIS_TYPE":"0","APOAPSIS":"548.578","BSTAR":"0.00008671300000","SEMIMAJOR_AXIS":"6925.388"},{"COUNTRY_CODE":"US","OBJECT_TYPE":"PAYLOAD","OBJECT_NAME":"STARLINK-2541","CENTER_NAME":"EARTH","NORAD_CAT_ID":"48313","MEAN_MOTION":"15.06397916","ECCENTRICITY":"0.00017630","MEAN_ELEMENT_THEORY":"SGP4","INCLINATION":"53.0552","EPOCH":"2022-01-31T20:01:48.518976","MEAN_MOTION_DOT":"-0.00001375","ELEMENT_SET_NO":"999","FILE":"3288814","CLASSIFICATION_TYPE":"U","MEAN_ANOMALY":"299.5844","TLE_LINE2":"2 48313  53.0552 335.7518 0001763  60.5321 299.5844 15.06397916 42405","SITE":"AFETR","REF_FRAME":"TEME","OBJECT_ID":"2021-036AP","ARG_OF_PERICENTER":"60.5321","BSTAR":"-0.00007343100000","APOAPSIS":"548.441","SEMIMAJOR_AXIS":"6925.355","LAUNCH_DATE":"2021-04-29","PERIAPSIS":"545.999","TLE_LINE1":"1 48313U 21036AP  22031.83458934 -.00001375  00000-0 -73431-4 0  9993","EPHEMERIS_TYPE":"0","REV_AT_EPOCH":"4240","TIME_SYSTEM":"UTC","PERIOD":"95.592","GP_ID":"195052733","DECAY_DATE":null,"RCS_SIZE":"LARGE","RA_OF_ASC_NODE":"335.7518","MEAN_MOTION_DDOT":"0.0000000000000"},{"MEAN_MOTION_DDOT":"0.0000000000000","RA_OF_ASC_NODE":"335.7770","RCS_SIZE":"LARGE","DECAY_DATE":null,"GP_ID":"195053483","PERIOD":"95.591","TIME_SYSTEM":"UTC","REV_AT_EPOCH":"4240","TLE_LINE1":"1 48314U 21036AQ  22031.83090033  .00004614  00000-0  32832-3 0  9992","EPHEMERIS_TYPE":"0","PERIAPSIS":"546.208","LAUNCH_DATE":"2021-04-29","SEMIMAJOR_AXIS":"6925.308","APOAPSIS":"548.139","BSTAR":"0.00032832000000","OBJECT_ID":"2021-036AQ","ARG_OF_PERICENTER":"63.7783","REF_FRAME":"TEME","TLE_LINE2":"2 48314  53.0549 335.7770 0001394  63.7783 296.3349 15.06413071 42405","SITE":"AFETR","MEAN_ANOMALY":"296.3349","FILE":"3288814","CLASSIFICATION_TYPE":"U","ELEMENT_SET_NO":"999","MEAN_MOTION_DOT":"0.00004614","MEAN_ELEMENT_THEORY":"SGP4","INCLINATION":"53.0549","EPOCH":"2022-01-31T19:56:29.788512","ECCENTRICITY":"0.00013940","MEAN_MOTION":"15.06413071","NORAD_CAT_ID":"48314","OBJECT_NAME":"STARLINK-2549","CENTER_NAME":"EARTH","COUNTRY_CODE":"US","OBJECT_TYPE":"PAYLOAD"},{"MEAN_ANOMALY":"291.9531","ELEMENT_SET_NO":"999","FILE":"3288814","CLASSIFICATION_TYPE":"U","OBJECT_ID":"2021-036AR","ARG_OF_PERICENTER":"68.1619","TLE_LINE2":"2 48315  53.0539 335.7958 0001512  68.1619 291.9531 15.06402984 42407","SITE":"AFETR","REF_FRAME":"TEME","OBJECT_NAME":"STARLINK-2506","CENTER_NAME":"EARTH","NORAD_CAT_ID":"48315","COUNTRY_CODE":"US","OBJECT_TYPE":"PAYLOAD","MEAN_ELEMENT_THEORY":"SGP4","INCLINATION":"53.0539","EPOCH":"2022-01-31T19:51:10.872288","MEAN_MOTION_DOT":"0.00002418","MEAN_MOTION":"15.06402984","ECCENTRICITY":"0.00015120","DECAY_DATE":null,"GP_ID":"195053735","TIME_SYSTEM":"UTC","PERIOD":"95.592","RA_OF_ASC_NODE":"335.7958","MEAN_MOTION_DDOT":"0.0000000000000","RCS_SIZE":"LARGE","SEMIMAJOR_AXIS":"6925.339","BSTAR":"0.00018113000000","APOAPSIS":"548.252","TLE_LINE1":"1 48315U 21036AR  22031.82720917  .00002418  00000-0  18113-3 0  9999","EPHEMERIS_TYPE":"0","REV_AT_EPOCH":"4240","LAUNCH_DATE":"2021-04-29","PERIAPSIS":"546.157"},{"APOAPSIS":"548.397","BSTAR":"0.00009890000000","SEMIMAJOR_AXIS":"6925.362","PERIAPSIS":"546.057","LAUNCH_DATE":"2021-04-29","REV_AT_EPOCH":"4240","EPHEMERIS_TYPE":"0","TLE_LINE1":"1 48316U 21036AS  22031.82353030  .00001192  00000-0  98900-4 0  9999","PERIOD":"95.592","TIME_SYSTEM":"UTC","GP_ID":"195053983","DECAY_DATE":null,"RCS_SIZE":"LARGE","MEAN_MOTION_DDOT":"0.0000000000000","RA_OF_ASC_NODE":"335.8149","OBJECT_TYPE":"PAYLOAD","COUNTRY_CODE":"US","NORAD_CAT_ID":"48316","CENTER_NAME":"EARTH","OBJECT_NAME":"STARLINK-2507","ECCENTRICITY":"0.00016890","MEAN_MOTION":"15.06395566","MEAN_MOTION_DOT":"0.00001192","EPOCH":"2022-01-31T19:45:53.017920","MEAN_ELEMENT_THEORY":"SGP4","INCLINATION":"53.0545","CLASSIFICATION_TYPE":"U","FILE":"3288814","ELEMENT_SET_NO":"999","MEAN_ANOMALY":"295.2768","REF_FRAME":"TEME","SITE":"AFETR","TLE_LINE2":"2 48316  53.0545 335.8149 0001689  64.8396 295.2768 15.06395566 42404","ARG_OF_PERICENTER":"64.8396","OBJECT_ID":"2021-036AS"},{"ECCENTRICITY":"0.00016770","MEAN_MOTION":"15.06395505","MEAN_MOTION_DOT":"0.00000439","EPOCH":"2022-01-31T13:18:24.733152","MEAN_ELEMENT_THEORY":"SGP4","INCLINATION":"53.0556","OBJECT_TYPE":"PAYLOAD","COUNTRY_CODE":"US","NORAD_CAT_ID":"48317","CENTER_NAME":"EARTH","OBJECT_NAME":"STARLINK-2513","REF_FRAME":"TEME","SITE":"AFETR","TLE_LINE2":"2 48317  53.0556 337.0179 0001677  66.3558 293.7607 15.06395505 42361","ARG_OF_PERICENTER":"66.3558","OBJECT_ID":"2021-036AT","CLASSIFICATION_TYPE":"U","FILE":"3288814","ELEMENT_SET_NO":"999","MEAN_ANOMALY":"293.7607","PERIAPSIS":"546.066","LAUNCH_DATE":"2021-04-29","REV_AT_EPOCH":"4236","EPHEMERIS_TYPE":"0","TLE_LINE1":"1 48317U 21036AT  22031.55445293  .00000439  00000-0  48408-4 0  9994","APOAPSIS":"548.389","BSTAR":"0.00004840800000","SEMIMAJOR_AXIS":"6925.362","RCS_SIZE":"LARGE","MEAN_MOTION_DDOT":"0.0000000000000","RA_OF_ASC_NODE":"337.0179","TIME_SYSTEM":"UTC","PERIOD":"95.592","GP_ID":"195053233","DECAY_DATE":null},{"ELEMENT_SET_NO":"999","CLASSIFICATION_TYPE":"U","FILE":"3288814","MEAN_ANOMALY":"292.7558","SITE":"AFETR","TLE_LINE2":"2 48318  53.0561 345.5510 0001706  67.3611 292.7558 15.06404884 42270","REF_FRAME":"TEME","ARG_OF_PERICENTER":"67.3611","OBJECT_ID":"2021-036AU","OBJECT_TYPE":"PAYLOAD","COUNTRY_CODE":"US","CENTER_NAME":"EARTH","OBJECT_NAME":"STARLINK-2509","NORAD_CAT_ID":"48318","MEAN_MOTION":"15.06404884","ECCENTRICITY":"0.00017060","EPOCH":"2022-01-31T21:04:10.056288","INCLINATION":"53.0561","MEAN_ELEMENT_THEORY":"SGP4","MEAN_MOTION_DOT":"0.00000532","TIME_SYSTEM":"UTC","PERIOD":"95.592","GP_ID":"195052984","DECAY_DATE":null,"RCS_SIZE":"LARGE","RA_OF_ASC_NODE":"345.5510","MEAN_MOTION_DDOT":"0.0000000000000","BSTAR":"0.00005462400000","APOAPSIS":"548.380","SEMIMAJOR_AXIS":"6925.334","LAUNCH_DATE":"2021-04-29","PERIAPSIS":"546.017","EPHEMERIS_TYPE":"0","TLE_LINE1":"1 48318U 21036AU  22031.87789417  .00000532  00000-0  54624-4 0  9990","REV_AT_EPOCH":"4227"},{"REF_FRAME":"TEME","TLE_LINE2":"2 48319  53.0547 345.5621 0001576  65.2739 294.8414 15.06410849 42273","SITE":"AFETR","OBJECT_ID":"2021-036AV","ARG_OF_PERICENTER":"65.2739","FILE":"3288814","CLASSIFICATION_TYPE":"U","ELEMENT_SET_NO":"999","MEAN_ANOMALY":"294.8414","ECCENTRICITY":"0.00015760","MEAN_MOTION":"15.06410849","MEAN_MOTION_DOT":"0.00003283","MEAN_ELEMENT_THEORY":"SGP4","INCLINATION":"53.0547","EPOCH":"2022-01-31T20:58:51.315456","COUNTRY_CODE":"US","OBJECT_TYPE":"PAYLOAD","NORAD_CAT_ID":"48319","OBJECT_NAME":"STARLINK-2512","CENTER_NAME":"EARTH","RCS_SIZE":"LARGE","MEAN_MOTION_DDOT":"0.0000000000000","RA_OF_ASC_NODE":"345.5621","PERIOD":"95.591","TIME_SYSTEM":"UTC","GP_ID":"195054235","DECAY_DATE":null,"PERIAPSIS":"546.089","LAUNCH_DATE":"2021-04-29","REV_AT_EPOCH":"4227","TLE_LINE1":"1 48319U 21036AV  22031.87420504  .00003283  00000-0  23910-3 0  9999","EPHEMERIS_TYPE":"0","APOAPSIS":"548.272","BSTAR":"0.00023910000000","SEMIMAJOR_AXIS":"6925.315"}];
